#aV2013  9 12  0  0  0.00000000     288 DD+AD WGS84 FIT  NGA
## 1757 345600.00000000   300.00000000 56547 0.0000000000000
+   31     1  2  3  4  5  6  7  8  9 10 11 12 13 14 15 16 17
+         18 19 20 21 22 23 24 25 26 27 28 29 31 32  0  0  0
+          0  0  0  0  0  0  0  0  0  0  0  0  0  0  0  0  0
+          0  0  0  0  0  0  0  0  0  0  0  0  0  0  0  0  0
+          0  0  0  0  0  0  0  0  0  0  0  0  0  0  0  0  0
++         2  2  2  2  2  2  2  2  2  2  2  2  2  2  2  2  2
++         2  2  2  2  2  2  2  2  2  2  2  2  2  2  2  0  0
++         0  0  0  0  0  0  0  0  0  0  0  0  0  0  0  0  0
++         0  0  0  0  0  0  0  0  0  0  0  0  0  0  0  0  0
++         0  0  0  0  0  0  0  0  0  0  0  0  0  0  0  0  0
%c cc cc ccc ccc cccc cccc cccc cccc ccccc ccccc ccccc ccccc
%c cc cc ccc ccc cccc cccc cccc cccc ccccc ccccc ccccc ccccc
%f  0.0000000  0.000000000  0.00000000000  0.000000000000000
%f  0.0000000  0.000000000  0.00000000000  0.000000000000000
%i    0    0    0    0      0      0      0      0         0
%i    0    0    0    0      0      0      0      0         0
/*      NGA, ST. LOUIS,MO.                                  
/*   EPHEMERIS COMPUTED FROM  1 DAYS OF DATA
/*   EPOCHA SMOOTHER  
/* CCCCCCCCCCCCCCCCCCCCCCCCCCCCCCCCCCCCCCCCCCCCCCCCCCCCCCCCC
*  2013  9 12  0 30  0.00000000                                                 
P  1  -1725.443312  16497.906397 -20748.149200     73.736976                    
V  1 -24558.849032   9476.650902   9692.104421      0.041696                    
P  2  21663.699337 -14033.478390   5212.482895    450.890852                    
V  2   7447.680255    787.555461 -30644.632372      0.017848                    
P  3  -8966.938674  20966.407088  12923.942530    258.286395                    
V  3  -3630.250689 -17323.791694  24767.367552      0.051156                    
P  4  25253.552853  -5218.991744  -7211.616823      0.490864                    
V  4  -6791.403143   6286.216855 -29282.373647      0.006713                    
P  5  12644.043867  -9624.546351  21272.012268   -399.650340                    
V  5  21476.668673  16535.654353  -5127.441473      0.000840                    
P  6 -13474.653117  14693.911535  17423.426347     49.177330                    
V  6  -1018.240668 -22295.861390  18456.437691      0.191115                    
P  7  14436.316401   9138.340903  20477.022629    257.614457                    
V  7 -23609.146145  10292.513765  11770.578372      0.042051                    
P  8  22854.374365   2560.201455  13941.592224      8.397129                    
V  8 -16236.588606   5699.551678  25212.503164      0.002986                    
P  9  22521.179113    197.642810  13644.689325    267.807556                    
V  9 -15990.823535   8736.319257  25167.306364      0.026738                    
P 10  22713.935136   6183.590275  12395.070453    -94.124304                    
V 10  11189.148948  11855.402293 -25368.263918     -0.014546                    
P 11  -6537.079136  21305.430088 -14734.627875   -418.882322                    
V 11 -16217.569025   9146.553800  21348.256633     -0.034869                    
P 12  -4409.586830 -18991.781701 -18180.870520    155.825008                    
V 12  18479.538198  13483.019861 -18415.847069      0.021905                    
P 13   6460.183529  20054.242359  15954.169010     80.872413                    
V 13  -6100.964650  19655.410241 -22193.329775     -0.037564                    
P 14 -14917.610714   -848.968894 -21734.315033    215.984641                    
V 14   5072.625768 -27630.259035  -2524.608752     -0.008891                    
P 15   2808.407884 -26254.835697    690.128976   -136.649765                    
V 15   3636.920104   1241.001239  31425.971646     -0.018493                    
P 16 -12733.294272   8205.802466  21823.001171   -246.899406                    
V 16 -21138.968092 -17852.972639  -5288.024661      0.007850                    
P 17  14715.879398   2922.754573 -21696.367440    -20.426636                    
V 17  -4399.452219  27718.994438    509.947818     -0.036693                    
P 18 -20586.133682 -17018.857523   1833.658609    273.616478                    
V 18   3582.296926  -1767.828369  30653.861096      0.020066                    
P 19  -8006.639370  24775.140765   3803.393124   -403.476319                    
V 19  -1953.658436  -5560.475447  31596.414288     -0.027981                    
P 20   9649.264372  19871.603904 -14975.766388    121.815991                    
V 20 -17109.501539  -8175.806546 -22056.712022      0.025745                    
P 21 -17834.143552  -7618.793759  18936.351729   -318.226186                    
V 21  20361.278495 -10308.551705  15004.705810     -0.018855                    
P 22 -23312.794696  -8530.695105  -9440.321592    184.401169                    
V 22  -7768.083452 -10139.666295  27604.187617      0.018806                    
P 23   1676.863138  25371.211769   6996.236517     49.031485                    
V 23  -4310.329387   8386.890769 -30159.545804     -0.034746                    
P 24   6107.234814 -17360.729952 -19140.032693    -13.580147                    
V 24  22819.853692  -8502.621673  15045.693838     -0.007147                    
P 25 -16462.608049 -19201.867604  -8329.660737    146.239659                    
V 25   9674.001006   4495.489534 -29599.418071      0.042115                    
P 26  12589.202148 -19371.672255  12169.656303    185.699892                    
V 26  -1247.723121  16684.953782  26784.684435      0.182158                    
P 27 -12416.593552  18353.914521  14623.316961    -35.421929                    
V 27     49.334952 -18711.716847  23520.132161     -0.045861                    
P 28  22162.156068  12917.952136  -6631.841092    291.804441                    
V 28   5735.982777   7381.960621  30664.220240      0.031436                    
P 29  -5748.372730 -22135.239086  13578.936380    469.909691                    
V 29   4866.623933 -16569.311500 -24984.197771      0.031427                    
P 31 -25381.941367   6274.382784  -5297.963801    325.645082                    
V 31   5677.645860  -4336.659230 -31056.659483      0.008807                    
P 32   -823.365272  18030.351356 -19539.069153   -549.374408                    
V 32 -19352.772112 -15761.458883 -13121.655617      0.026214                    
EOF
